[
  {
    "Name": "Austria",
    "Translations": [
      {
        "Language": "it",
        "Name": "Austria"
      },
      {
        "Language": "hr",
        "Name": "Austrija"
      },
      {
        "Language": "de",
        "Name": "Österreich"
      }
    ],
    "Cities": [
      {
        "Name": "Baden",
        "PostCode": 2500,
        "Latitude": 48.010575,
        "Longitude": 16.230497
      },
      {
        "Name": "Bregenz",
        "PostCode": 6900,
        "Latitude": 47.503114,
        "Longitude": 9.738358
      },
      {
        "Name": "Dornbirn",
        "PostCode": 6850,
        "Latitude": 47.414896,
        "Longitude": 9.738356
      },
      {
        "Name": "Eisenstadt",
        "PostCode": 7000,
        "Latitude": 47.845184,
        "Longitude": 16.525185
      },
      {
        "Name": "Feldkirch",
        "PostCode": 6800,
        "Latitude": 47.235789,
        "Longitude": 9.589343
      },
      {
        "Name": "Graz",
        "PostCode": 8010,
        "Latitude": 47.070714,
        "Longitude": 15.439504
      },
      {
        "Name": "Innsbruck",
        "PostCode": 6020,
        "Latitude": 47.269212,
        "Longitude": 11.404102
      },
      {
        "Name": "Klagenfurt",
        "PostCode": 9020,
        "Latitude": 46.636203,
        "Longitude": 14.310058
      },
      {
        "Name": "Krems",
        "PostCode": 3500,
        "Latitude": 48.410212,
        "Longitude": 15.614569
      },
      {
        "Name": "Leoben",
        "PostCode": 8700,
        "Latitude": 47.379078,
        "Longitude": 15.093950
      },
      {
        "Name": "Lienz",
        "PostCode": 9900,
        "Latitude": 46.827609,
        "Longitude": 12.762963
      },
      {
        "Name": "Linz",
        "PostCode": 4020,
        "Latitude": 48.306940,
        "Longitude": 14.285830
      },
      {
        "Name": "Salzburg",
        "PostCode": 5020,
        "Latitude": 47.809490,
        "Longitude": 13.055010
      },
      {
        "Name": "St. Pölten",
        "PostCode": 3100,
        "Latitude": 48.204658,
        "Longitude": 15.634650
      },
      {
        "Name": "Steyr",
        "PostCode": 4400,
        "Latitude": 48.040329,
        "Longitude": 14.414797
      },
      {
        "Name": "Villach",
        "PostCode": 9500,
        "Latitude": 46.615897,
        "Longitude": 13.855009
      },
      {
        "Name": "Vienna",
        "PostCode": 1010,
        "Latitude": 48.208176,
        "Longitude": 16.373819
      },
      {
        "Name": "Wiener Neustadt",
        "PostCode": 2700,
        "Latitude": 47.815497,
        "Longitude": 16.249697
      },
      {
        "Name": "Wels",
        "PostCode": 4600,
        "Latitude": 48.166229,
        "Longitude": 14.035811
      },
      {
        "Name": "Wien",
        "PostCode": 1010,
        "Latitude": 48.208176,
        "Longitude": 16.373819
      }
    ]
  },
  {
    "Name": "Croatia",
    "Translations": [
      {
        "Language": "it",
        "Name": "Croazia"
      },
      {
        "Language": "hr",
        "Name": "Hrvatska"
      },
      {
        "Language": "de",
        "Name": "Kroatien"
      }
    ],
    "Cities": [
      {
        "Name": "Bjelovar",
        "PostCode": 43000,
        "Latitude": 45.898238,
        "Longitude": 16.845464
      },
      {
        "Name": "Čakovec",
        "PostCode": 40000,
        "Latitude": 46.387734,
        "Longitude": 16.433674
      },
      {
        "Name": "Dubrovnik",
        "PostCode": 20000,
        "Latitude": 42.650661,
        "Longitude": 18.091267
      },
      {
        "Name": "Karlovac",
        "PostCode": 47000,
        "Latitude": 45.487062,
        "Longitude": 15.547893
      },
      {
        "Name": "Koprivnica",
        "PostCode": 48000,
        "Latitude": 46.162283,
        "Longitude": 16.827683
      },
      {
        "Name": "Osijek",
        "PostCode": 31000,
        "Latitude": 45.551110,
        "Longitude": 18.693889
      },
      {
        "Name": "Pazin",
        "PostCode": 52000,
        "Latitude": 45.241533,
        "Longitude": 13.936197
      },
      {
        "Name": "Ploče",
        "PostCode": 20340,
        "Latitude": 43.056351,
        "Longitude": 17.432280
      },
      {
        "Name": "Požega",
        "PostCode": 34000,
        "Latitude": 45.340899,
        "Longitude": 17.683591
      },
      {
        "Name": "Rijeka",
        "PostCode": 51000,
        "Latitude": 45.327063,
        "Longitude": 14.442176
      },
      {
        "Name": "Sisak",
        "PostCode": 44000,
        "Latitude": 45.465572,
        "Longitude": 16.376921
      },
      {
        "Name": "Slavonski Brod",
        "PostCode": 35000,
        "Latitude": 45.160500,
        "Longitude": 18.015501
      },
      {
        "Name": "Split",
        "PostCode": 21000,
        "Latitude": 43.508133,
        "Longitude": 16.440193
      },
      {
        "Name": "Šibenik",
        "PostCode": 22000,
        "Latitude": 43.735041,
        "Longitude": 15.895245
      },
      {
        "Name": "Varaždin",
        "PostCode": 42000,
        "Latitude": 46.304773,
        "Longitude": 16.337317
      },
      {
        "Name": "Vinkovci",
        "PostCode": 32100,
        "Latitude": 45.288750,
        "Longitude": 18.804350
      },
      {
        "Name": "Virovitica",
        "PostCode": 33000,
        "Latitude": 45.831245,
        "Longitude": 17.383819
      },
      {
        "Name": "Vukovar",
        "PostCode": 32000,
        "Latitude": 45.353888,
        "Longitude": 18.990833
      },
      {
        "Name": "Zadar",
        "PostCode": 23000,
        "Latitude": 44.119370,
        "Longitude": 15.231365
      },
      {
        "Name": "Zagreb",
        "PostCode": 10000,
        "Latitude": 45.815011,
        "Longitude": 15.981919
      }
    ]
  },
  {
    "Name": "Germany",
    "Translations": [
      {
        "Language": "it",
        "Name": "Germania"
      },
      {
        "Language": "hr",
        "Name": "Njemačka"
      },
      {
        "Language": "de",
        "Name": "Deutschland"
      }
    ],
    "Cities": [
      {
        "Name": "Berlin",
        "PostCode": 10115,
        "Latitude": 52.520008,
        "Longitude": 13.404954
      },
      {
        "Name": "Bonn",
        "PostCode": 53111,
        "Latitude": 50.737430,
        "Longitude": 7.098207
      },
      {
        "Name": "Bremen",
        "PostCode": 28195,
        "Latitude": 53.075874,
        "Longitude": 8.807030
      },
      {
        "Name": "Bochum",
        "PostCode": 44787,
        "Latitude": 51.481846,
        "Longitude": 7.216236
      },
      {
        "Name": "Dortmund",
        "PostCode": 44135,
        "Latitude": 51.513587,
        "Longitude": 7.465298
      },
      {
        "Name": "Dresden",
        "PostCode": "01067",
        "Latitude": 51.050408,
        "Longitude": 13.737262
      },
      {
        "Name": "Duisburg",
        "PostCode": 47051,
        "Latitude": 51.434407,
        "Longitude": 6.762329
      },
      {
        "Name": "Düsseldorf",
        "PostCode": 40212,
        "Latitude": 51.227741,
        "Longitude": 6.773456
      },
      {
        "Name": "Essen",
        "PostCode": 45127,
        "Latitude": 51.455643,
        "Longitude": 7.011555
      },
      {
        "Name": "Frankfurt",
        "PostCode": 60311,
        "Latitude": 50.110924,
        "Longitude": 8.682127
      },
      {
        "Name": "Hamburg",
        "PostCode": 20095,
        "Latitude": 53.551086,
        "Longitude": 9.993682
      },
      {
        "Name": "Hannover",
        "PostCode": 30159,
        "Latitude": 52.375892,
        "Longitude": 9.732010
      },
      {
        "Name": "Karlsruhe",
        "PostCode": 76133,
        "Latitude": 49.006890,
        "Longitude": 8.403653
      },
      {
        "Name": "Köln",
        "PostCode": 50667,
        "Latitude": 50.937531,
        "Longitude": 6.960279
      },
      {
        "Name": "Leipzig",
        "PostCode": "04103",
        "Latitude": 51.339695,
        "Longitude": 12.373075
      },
      {
        "Name": "Mannheim",
        "PostCode": 68159,
        "Latitude": 49.486706,
        "Longitude": 8.466199
      },
      {
        "Name": "München",
        "PostCode": 80331,
        "Latitude": 48.135125,
        "Longitude": 11.581981
      },
      {
        "Name": "Nürnberg",
        "PostCode": 90403,
        "Latitude": 49.452030,
        "Longitude": 11.076750
      },
      {
        "Name": "Stuttgart",
        "PostCode": 70173,
        "Latitude": 48.775845,
        "Longitude": 9.182932
      },
      {
        "Name": "Wuppertal",
        "PostCode": 42103,
        "Latitude": 51.256213,
        "Longitude": 7.150764
      }
    ]
  },
  {
    "Name": "Italy",
    "Translations": [
      {
        "Language": "it",
        "Name": "Italia"
      },
      {
        "Language": "hr",
        "Name": "Italija"
      },
      {
        "Language": "de",
        "Name": "Italien"
      }
    ],
    "Cities": [
      {
        "Name": "Bari",
        "PostCode": 70121,
        "Latitude": 41.117143,
        "Longitude": 16.871871
      },
      {
        "Name": "Bergamo",
        "PostCode": 24121,
        "Latitude": 45.694622,
        "Longitude": 9.669804
      },
      {
        "Name": "Bologna",
        "PostCode": 40121,
        "Latitude": 44.494887,
        "Longitude": 11.342616
      },
      {
        "Name": "Catania",
        "PostCode": 95100,
        "Latitude": 37.507877,
        "Longitude": 15.083030
      },
      {
        "Name": "Firenze",
        "PostCode": 50121,
        "Latitude": 43.769562,
        "Longitude": 11.255814
      },
      {
        "Name": "Genova",
        "PostCode": 16121,
        "Latitude": 44.405649,
        "Longitude": 8.946256
      },
      {
        "Name": "Messina",
        "PostCode": 98121,
        "Latitude": 38.193771,
        "Longitude": 15.554205
      },
      {
        "Name": "Milan",
        "PostCode": 20121,
        "Latitude": 45.464203,
        "Longitude": 9.189982
      },
      {
        "Name": "Napoli",
        "PostCode": 80100,
        "Latitude": 40.852167,
        "Longitude": 14.268110
      },
      {
        "Name": "Padova",
        "PostCode": 35121,
        "Latitude": 45.409384,
        "Longitude": 11.876176
      },
      {
        "Name": "Palermo",
        "PostCode": 90121,
        "Latitude": 38.115640,
        "Longitude": 13.361405
      },
      {
        "Name": "Parma",
        "PostCode": 43121,
        "Latitude": 44.801485,
        "Longitude": 10.327904
      },
      {
        "Name": "Perugia",
        "PostCode": "06121",
        "Latitude": 43.110717,
        "Longitude": 12.390828
      },
      {
        "Name": "Roma",
        "PostCode": "00118",
        "Latitude": 41.902782,
        "Longitude": 12.496366
      },
      {
        "Name": "Salerno",
        "PostCode": 84121,
        "Latitude": 40.682065,
        "Longitude": 14.768109
      },
      {
        "Name": "Siena",
        "PostCode": 53100,
        "Latitude": 43.318015,
        "Longitude": 11.331526
      },
      {
        "Name": "Torino",
        "PostCode": 10100,
        "Latitude": 45.070312,
        "Longitude": 7.686856
      },
      {
        "Name": "Trieste",
        "PostCode": 34121,
        "Latitude": 45.649435,
        "Longitude": 13.766685
      },
      {
        "Name": "Venezia",
        "PostCode": 30121,
        "Latitude": 45.440847,
        "Longitude": 12.315515
      },
      {
        "Name": "Verona",
        "PostCode": 37121,
        "Latitude": 45.438384,
        "Longitude": 10.991622
      }
    ]
  }
]