{
  "FirstName": [
    "Antonio",
    "Brad",
    "Tom",
    "Johnny",
    "Leonardo",
    "Angelina",
    "Jennifer",
    "Julia",
    "Meryl",
    "Cate",
    "George",
    "Robert",
    "Denzel",
    "Morgan",
    "Samuel",
    "Scarlett",
    "Natalie",
    "Charlize",
    "Keira",
    "Emma",
    "Daniel",
    "Jude",
    "Matt",
    "Russell",
    "Hugh",
    "Nicole",
    "Reese",
    "Mila",
    "Emily",
    "Kate",
    "Idris",
    "Chris",
    "Liam",
    "Ryan",
    "Chris",
    "Alicia",
    "Jessica",
    "Zoe",
    "Natalie",
    "Charlize",
    "Eva",
    "Penelope",
    "Salma",
    "Mila",
    "Scarlett",
    "Javier",
    "Joaquin",
    "Heath",
    "Russell",
    "Bradley"
  ],
  "LastName": [
    "Banderas",
    "Pitt",
    "Hanks",
    "Depp",
    "DiCaprio",
    "Jolie",
    "Aniston",
    "Roberts",
    "Streep",
    "Blanchett",
    "Clooney",
    "Downey",
    "Washington",
    "Freeman",
    "Jackson",
    "Johansson",
    "Portman",
    "Theron",
    "Knightley",
    "Watson",
    "Craig",
    "Law",
    "Damon",
    "Crowe",
    "Grant",
    "Kidman",
    "Witherspoon",
    "Kunis",
    "Stone",
    "Beckinsale",
    "Elba",
    "Evans",
    "Neeson",
    "Reynolds",
    "Hemsworth",
    "Vikander",
    "Chastain",
    "Saldana",
    "Portman",
    "Theron",
    "Longoria",
    "Cruz",
    "Hayek",
    "Kunis",
    "Johansson",
    "Bardem",
    "Phoenix",
    "Ledger",
    "Crowe",
    "Cooper"
  ],
  "CustomerName": [
    "Podravka d.d.",
    "Roto d.o.o.",
    "INA - Industrija nafte d.d.",
    "Ericsson Nikola Tesla d.d.",
    "Konzum d.d.",
    "Hrvatska elektroprivreda d.d. (HEP)",
    "Adris grupa d.d.",
    "Atlantic Grupa d.d.",
    "Hrvatski Telekom d.d.",
    "Pliva - Ljekarne Zagreb d.d.",
    "Dukat d.d.",
    "Adria Oil d.o.o.",
    "Coca-Cola HBC Hrvatska d.o.o.",
    "Merkur osiguranje d.d.",
    "Vipnet d.o.o.",
    "Kraš d.d.",
    "Dalekovod d.d.",
    "INA Maziva d.o.o.",
    "Agrokor Konzum d.o.o.",
    "Zagrebačka pivovara d.d.",
    "Microsoft Corporation",
    "Apple Inc.",
    "Amazon.com Inc.",
    "Alphabet Inc. (Google)",
    "Facebook, Inc.",
    "Tesla, Inc.",
    "Johnson & Johnson",
    "The Procter & Gamble Company",
    "The Goldman Sachs Group, Inc.",
    "The Walt Disney Company",
    "Mastercard Incorporated",
    "Visa Inc.",
    "JPMorgan Chase & Co.",
    "Intel Corporation",
    "The Coca-Cola Company",
    "PepsiCo, Inc.",
    "Verizon Communications Inc.",
    "AT&T Inc.",
    "Ford Motor Company",
    "General Motors Company",
    "The Boeing Company",
    "Lockheed Martin Corporation",
    "Exxon Mobil Corporation",
    "Chevron Corporation",
    "Walmart Inc.",
    "Target Corporation",
    "The Home Depot, Inc.",
    "Starbucks Corporation",
    "McDonald's Corporation",
    "Walt Disney World"
  ],
  "ContactName": [
    "Ivo Ivić",
    "Antonio Polanc",
    "Marko Marković",
    "Ana Anić",
    "Petar Petrić",
    "Iva Ivanić",
    "Mario Marić",
    "Sanja Sanjić",
    "Josip Josić",
    "Katarina Katić",
    "Robert Robić",
    "Marina Marinić",
    "Tomislav Tomić",
    "Elena Elenić",
    "Ivan Ivančić",
    "Nina Ninić",
    "Luka Luketić",
    "Maja Majić",
    "Stjepan Stjepanić",
    "Martina Martinović"
  ],
  "Email": [
    "ivo.ivic@gmail.com",
    "antonio.polanc@yahoo.com",
    "marko.markovic@hotmail.com",
    "ana.anic@gmail.com",
    "petar.petric@yahoo.com",
    "iva.ivanic@hotmail.com",
    "mario.maric@gmail.com",
    "sanja.sanjic@yahoo.com",
    "josip.josic@hotmail.com",
    "katarina.katic@gmail.com",
    "robert.robic@yahoo.com",
    "marina.marinic@hotmail.com",
    "tomislav.tomic@gmail.com",
    "elena.elenic@yahoo.com",
    "ivan.ivancic@hotmail.com",
    "nina.ninic@gmail.com",
    "luka.luketic@yahoo.com",
    "maja.majic@hotmail.com",
    "stjepan.stjepanic@gmail.com",
    "martina.martinovic@yahoo.com"
  ],
  "PhoneNumber": [
    "098256300",
    "098347891",
    "098987654",
    "098123456",
    "098555777",
    "098444333",
    "098654321",
    "098876543",
    "098234567",
    "098777888",
    "098111222",
    "098999000",
    "098345678",
    "098567890",
    "098654987",
    "098890123",
    "098555666",
    "098777999",
    "098333222",
    "098444555"
  ],
  "Street": [
    "Aleja Bologne",
    "Ante Starčevića",
    "Braće Radić",
    "Dražena Petrovića",
    "Franje Tuđmana",
    "Heinzelova",
    "Ilica",
    "Industrijska",
    "Jelačićev trg",
    "Kneza Branimira",
    "Kopilica",
    "Ljudevita Gaja",
    "Maksimirska",
    "Maršala Tita",
    "Savska",
    "Stjepana Radića",
    "Trg Bana Jelačića",
    "Trg Petra Krešimira IV",
    "Vukovarska",
    "Zagrebačka",
    "Martićeva",
    "Gundulićeva",
    "Palmotićeva",
    "Preradovićeva",
    "Ivan Gundulić",
    "Ivana Brlić-Mažuranić",
    "Vladimira Nazora",
    "Miroslava Krleže",
    "Ul. Andrije Hebranga",
    "Vlaška ulica",
    "Koranska",
    "Selska",
    "Petrova",
    "Kozarčeva",
    "Miramarska",
    "Palmotićeva",
    "Martićeva",
    "Božidara Magovca",
    "Nova cesta",
    "Vrbik",
    "Remetinečka cesta",
    "Kaptol",
    "Trnje",
    "Sopot",
    "Trešnjevka",
    "Većeslava Holjevca",
    "Dugave",
    "Zapruđe",
    "Kajzerica",
    "Brestje",
    "Jakuševec"
  ],
  "City": [
    "Zagreb",
    "Split",
    "Rijeka",
    "Osijek",
    "Zadar",
    "Varaždin",
    "Pula",
    "Šibenik",
    "Dubrovnik",
    "Vukovar",
    "Karlovac",
    "Sisak",
    "Slavonski Brod",
    "Vinkovci",
    "Koprivnica",
    "Bjelovar",
    "Zaprešić",
    "Samobor",
    "Velika Gorica",
    "Križevci"
  ],
  "PostCode": [
    "10000",
    "21000",
    "51000",
    "31000",
    "23000",
    "42000",
    "52000",
    "22000",
    "20000",
    "32000",
    "47000",
    "44000",
    "35000",
    "32100",
    "48000",
    "43000",
    "10290",
    "10430",
    "10410",
    "48260"
  ],
  "Country": [
    "Hrvatska",
    "Slovenija",
    "Austrija",
    "Njemačka",
    "Italija",
    "Francuska",
    "Španjolska",
    "Portugal",
    "Nizozemska",
    "Belgija",
    "Švicarska",
    "Poljska",
    "Češka",
    "Slovačka",
    "Mađarska",
    "Rumunjska",
    "Bugarska",
    "Grčka",
    "Turska",
    "Rusija"
  ],
  "Languages": [
    {
      "Name": "English",
      "Locale": "en"
    },
    {
      "Name": "Italian",
      "Locale": "it"
    },
    {
      "Name": "Croatian",
      "Locale": "hr"
    },
    {
      "Name": "German",
      "Locale": "de-DE"
    }
  ],
  "OfficeName": [
    "Novi Ured 1",
    "Sjeverni Ured",
    "Ured Kreativnosti",
    "Proljetni Ured",
    "Ured Inovacija",
    "Sunčani Ured",
    "Ured za Tehnologiju",
    "Istočni Ured",
    "Morski Ured",
    "Ured Znanosti",
    "Ured Zelenila",
    "Ured Izvrsnosti",
    "Ured za Digitalne Medije",
    "Ured za Umjetnost",
    "Ured za Energiju",
    "Ured za Dizajn",
    "Ured za Glazbu",
    "Ured za Sport",
    "Ured za Kreativne Projekte",
    "Ured za Zdravlje",
    "Ured za Putovanja",
    "Ured za Ekologiju",
    "Ured za Poslovanje",
    "Ured za Proizvodnju",
    "Ured za Održivost",
    "Ured za Planiranje",
    "Ured za Sigurnost",
    "Ured za Vodiče",
    "Ured za Marketing",
    "Ured za Hrskave Ideje",
    "Ured za Razvoj",
    "Ured za Pustolovine",
    "Ured za Knjige",
    "Ured za Obitelj",
    "Ured za Zabavu",
    "Ured za Nauku",
    "Ured za Društvo",
    "Ured za Film",
    "Ured za Glumce",
    "Ured za Ples",
    "Ured za Modu",
    "Ured za Kuhanje",
    "Ured za Vino",
    "Ured za Putovanja",
    "Ured za Umjetnost",
    "Ured za Zdravlje",
    "Ured za Glazbu",
    "Ured za Sport",
    "Ured za Kreativne Projekte"
  ],
  "CountriesAndCities": [
    {
      "Name": "Austria",
      "Translations": [
        {
          "Language": "it",
          "Name": "Austria"
        },
        {
          "Language": "hr",
          "Name": "Austrija"
        },
        {
          "Language": "de",
          "Name": "Österreich"
        }
      ],
      "Cities": [
        {
          "Name": "Baden",
          "PostCode": 2500,
          "Latitude": 48.010575,
          "Longitude": 16.230497
        },
        {
          "Name": "Bregenz",
          "PostCode": 6900,
          "Latitude": 47.503114,
          "Longitude": 9.738358
        },
        {
          "Name": "Dornbirn",
          "PostCode": 6850,
          "Latitude": 47.414896,
          "Longitude": 9.738356
        },
        {
          "Name": "Eisenstadt",
          "PostCode": 7000,
          "Latitude": 47.845184,
          "Longitude": 16.525185
        },
        {
          "Name": "Feldkirch",
          "PostCode": 6800,
          "Latitude": 47.235789,
          "Longitude": 9.589343
        },
        {
          "Name": "Graz",
          "PostCode": 8010,
          "Latitude": 47.070714,
          "Longitude": 15.439504
        },
        {
          "Name": "Innsbruck",
          "PostCode": 6020,
          "Latitude": 47.269212,
          "Longitude": 11.404102
        },
        {
          "Name": "Klagenfurt",
          "PostCode": 9020,
          "Latitude": 46.636203,
          "Longitude": 14.310058
        },
        {
          "Name": "Krems",
          "PostCode": 3500,
          "Latitude": 48.410212,
          "Longitude": 15.614569
        },
        {
          "Name": "Leoben",
          "PostCode": 8700,
          "Latitude": 47.379078,
          "Longitude": 15.093950
        },
        {
          "Name": "Lienz",
          "PostCode": 9900,
          "Latitude": 46.827609,
          "Longitude": 12.762963
        },
        {
          "Name": "Linz",
          "PostCode": 4020,
          "Latitude": 48.306940,
          "Longitude": 14.285830
        },
        {
          "Name": "Salzburg",
          "PostCode": 5020,
          "Latitude": 47.809490,
          "Longitude": 13.055010
        },
        {
          "Name": "St. Pölten",
          "PostCode": 3100,
          "Latitude": 48.204658,
          "Longitude": 15.634650
        },
        {
          "Name": "Steyr",
          "PostCode": 4400,
          "Latitude": 48.040329,
          "Longitude": 14.414797
        },
        {
          "Name": "Villach",
          "PostCode": 9500,
          "Latitude": 46.615897,
          "Longitude": 13.855009
        },
        {
          "Name": "Vienna",
          "PostCode": 1010,
          "Latitude": 48.208176,
          "Longitude": 16.373819
        },
        {
          "Name": "Wiener Neustadt",
          "PostCode": 2700,
          "Latitude": 47.815497,
          "Longitude": 16.249697
        },
        {
          "Name": "Wels",
          "PostCode": 4600,
          "Latitude": 48.166229,
          "Longitude": 14.035811
        },
        {
          "Name": "Wien",
          "PostCode": 1010,
          "Latitude": 48.208176,
          "Longitude": 16.373819
        }
      ]
    },
    {
      "Name": "Croatia",
      "Translations": [
        {
          "Language": "it",
          "Name": "Croazia"
        },
        {
          "Language": "hr",
          "Name": "Hrvatska"
        },
        {
          "Language": "de",
          "Name": "Kroatien"
        }
      ],
      "Cities": [
        {
          "Name": "Bjelovar",
          "PostCode": 43000,
          "Latitude": 45.898238,
          "Longitude": 16.845464
        },
        {
          "Name": "Čakovec",
          "PostCode": 40000,
          "Latitude": 46.387734,
          "Longitude": 16.433674
        },
        {
          "Name": "Dubrovnik",
          "PostCode": 20000,
          "Latitude": 42.650661,
          "Longitude": 18.091267
        },
        {
          "Name": "Karlovac",
          "PostCode": 47000,
          "Latitude": 45.487062,
          "Longitude": 15.547893
        },
        {
          "Name": "Koprivnica",
          "PostCode": 48000,
          "Latitude": 46.162283,
          "Longitude": 16.827683
        },
        {
          "Name": "Osijek",
          "PostCode": 31000,
          "Latitude": 45.551110,
          "Longitude": 18.693889
        },
        {
          "Name": "Pazin",
          "PostCode": 52000,
          "Latitude": 45.241533,
          "Longitude": 13.936197
        },
        {
          "Name": "Ploče",
          "PostCode": 20340,
          "Latitude": 43.056351,
          "Longitude": 17.432280
        },
        {
          "Name": "Požega",
          "PostCode": 34000,
          "Latitude": 45.340899,
          "Longitude": 17.683591
        },
        {
          "Name": "Rijeka",
          "PostCode": 51000,
          "Latitude": 45.327063,
          "Longitude": 14.442176
        },
        {
          "Name": "Sisak",
          "PostCode": 44000,
          "Latitude": 45.465572,
          "Longitude": 16.376921
        },
        {
          "Name": "Slavonski Brod",
          "PostCode": 35000,
          "Latitude": 45.160500,
          "Longitude": 18.015501
        },
        {
          "Name": "Split",
          "PostCode": 21000,
          "Latitude": 43.508133,
          "Longitude": 16.440193
        },
        {
          "Name": "Šibenik",
          "PostCode": 22000,
          "Latitude": 43.735041,
          "Longitude": 15.895245
        },
        {
          "Name": "Varaždin",
          "PostCode": 42000,
          "Latitude": 46.304773,
          "Longitude": 16.337317
        },
        {
          "Name": "Vinkovci",
          "PostCode": 32100,
          "Latitude": 45.288750,
          "Longitude": 18.804350
        },
        {
          "Name": "Virovitica",
          "PostCode": 33000,
          "Latitude": 45.831245,
          "Longitude": 17.383819
        },
        {
          "Name": "Vukovar",
          "PostCode": 32000,
          "Latitude": 45.353888,
          "Longitude": 18.990833
        },
        {
          "Name": "Zadar",
          "PostCode": 23000,
          "Latitude": 44.119370,
          "Longitude": 15.231365
        },
        {
          "Name": "Zagreb",
          "PostCode": 10000,
          "Latitude": 45.815011,
          "Longitude": 15.981919
        }
      ]
    },
    {
      "Name": "Germany",
      "Translations": [
        {
          "Language": "it",
          "Name": "Germania"
        },
        {
          "Language": "hr",
          "Name": "Njemačka"
        },
        {
          "Language": "de",
          "Name": "Deutschland"
        }
      ],
      "Cities": [
        {
          "Name": "Berlin",
          "PostCode": 10115,
          "Latitude": 52.520008,
          "Longitude": 13.404954
        },
        {
          "Name": "Bonn",
          "PostCode": 53111,
          "Latitude": 50.737430,
          "Longitude": 7.098207
        },
        {
          "Name": "Bremen",
          "PostCode": 28195,
          "Latitude": 53.075874,
          "Longitude": 8.807030
        },
        {
          "Name": "Bochum",
          "PostCode": 44787,
          "Latitude": 51.481846,
          "Longitude": 7.216236
        },
        {
          "Name": "Dortmund",
          "PostCode": 44135,
          "Latitude": 51.513587,
          "Longitude": 7.465298
        },
        {
          "Name": "Dresden",
          "PostCode": "01067",
          "Latitude": 51.050408,
          "Longitude": 13.737262
        },
        {
          "Name": "Duisburg",
          "PostCode": 47051,
          "Latitude": 51.434407,
          "Longitude": 6.762329
        },
        {
          "Name": "Düsseldorf",
          "PostCode": 40212,
          "Latitude": 51.227741,
          "Longitude": 6.773456
        },
        {
          "Name": "Essen",
          "PostCode": 45127,
          "Latitude": 51.455643,
          "Longitude": 7.011555
        },
        {
          "Name": "Frankfurt",
          "PostCode": 60311,
          "Latitude": 50.110924,
          "Longitude": 8.682127
        },
        {
          "Name": "Hamburg",
          "PostCode": 20095,
          "Latitude": 53.551086,
          "Longitude": 9.993682
        },
        {
          "Name": "Hannover",
          "PostCode": 30159,
          "Latitude": 52.375892,
          "Longitude": 9.732010
        },
        {
          "Name": "Karlsruhe",
          "PostCode": 76133,
          "Latitude": 49.006890,
          "Longitude": 8.403653
        },
        {
          "Name": "Köln",
          "PostCode": 50667,
          "Latitude": 50.937531,
          "Longitude": 6.960279
        },
        {
          "Name": "Leipzig",
          "PostCode": "04103",
          "Latitude": 51.339695,
          "Longitude": 12.373075
        },
        {
          "Name": "Mannheim",
          "PostCode": 68159,
          "Latitude": 49.486706,
          "Longitude": 8.466199
        },
        {
          "Name": "München",
          "PostCode": 80331,
          "Latitude": 48.135125,
          "Longitude": 11.581981
        },
        {
          "Name": "Nürnberg",
          "PostCode": 90403,
          "Latitude": 49.452030,
          "Longitude": 11.076750
        },
        {
          "Name": "Stuttgart",
          "PostCode": 70173,
          "Latitude": 48.775845,
          "Longitude": 9.182932
        },
        {
          "Name": "Wuppertal",
          "PostCode": 42103,
          "Latitude": 51.256213,
          "Longitude": 7.150764
        }
      ]
    },
    {
      "Name": "Italy",
      "Translations": [
        {
          "Language": "it",
          "Name": "Italia"
        },
        {
          "Language": "hr",
          "Name": "Italija"
        },
        {
          "Language": "de",
          "Name": "Italien"
        }
      ],
      "Cities": [
        {
          "Name": "Bari",
          "PostCode": 70121,
          "Latitude": 41.117143,
          "Longitude": 16.871871
        },
        {
          "Name": "Bergamo",
          "PostCode": 24121,
          "Latitude": 45.694622,
          "Longitude": 9.669804
        },
        {
          "Name": "Bologna",
          "PostCode": 40121,
          "Latitude": 44.494887,
          "Longitude": 11.342616
        },
        {
          "Name": "Catania",
          "PostCode": 95100,
          "Latitude": 37.507877,
          "Longitude": 15.083030
        },
        {
          "Name": "Firenze",
          "PostCode": 50121,
          "Latitude": 43.769562,
          "Longitude": 11.255814
        },
        {
          "Name": "Genova",
          "PostCode": 16121,
          "Latitude": 44.405649,
          "Longitude": 8.946256
        },
        {
          "Name": "Messina",
          "PostCode": 98121,
          "Latitude": 38.193771,
          "Longitude": 15.554205
        },
        {
          "Name": "Milan",
          "PostCode": 20121,
          "Latitude": 45.464203,
          "Longitude": 9.189982
        },
        {
          "Name": "Napoli",
          "PostCode": 80100,
          "Latitude": 40.852167,
          "Longitude": 14.268110
        },
        {
          "Name": "Padova",
          "PostCode": 35121,
          "Latitude": 45.409384,
          "Longitude": 11.876176
        },
        {
          "Name": "Palermo",
          "PostCode": 90121,
          "Latitude": 38.115640,
          "Longitude": 13.361405
        },
        {
          "Name": "Parma",
          "PostCode": 43121,
          "Latitude": 44.801485,
          "Longitude": 10.327904
        },
        {
          "Name": "Perugia",
          "PostCode": "06121",
          "Latitude": 43.110717,
          "Longitude": 12.390828
        },
        {
          "Name": "Roma",
          "PostCode": "00118",
          "Latitude": 41.902782,
          "Longitude": 12.496366
        },
        {
          "Name": "Salerno",
          "PostCode": 84121,
          "Latitude": 40.682065,
          "Longitude": 14.768109
        },
        {
          "Name": "Siena",
          "PostCode": 53100,
          "Latitude": 43.318015,
          "Longitude": 11.331526
        },
        {
          "Name": "Torino",
          "PostCode": 10100,
          "Latitude": 45.070312,
          "Longitude": 7.686856
        },
        {
          "Name": "Trieste",
          "PostCode": 34121,
          "Latitude": 45.649435,
          "Longitude": 13.766685
        },
        {
          "Name": "Venezia",
          "PostCode": 30121,
          "Latitude": 45.440847,
          "Longitude": 12.315515
        },
        {
          "Name": "Verona",
          "PostCode": 37121,
          "Latitude": 45.438384,
          "Longitude": 10.991622
        }
      ]
    }
  ]
}